{"type": "FeatureCollection", "features": [ {"type": "Feature", "properties": {"norad_id": 39122, "name": "EUTELSAT 117 WEST A", "group": "eutelsat", "lat": 0.03221372987561285, "lon": 118.93966457010488, "alt_km": 35795.351318751105, "timestamp": "2025-12-03T10:52:57.121407+00:00", "meta": {"OBJECT_NAME": "EUTELSAT 117 WEST A", "OBJECT_ID": "2013-012A", "EPOCH": "2025-12-03T04:16:38.815392", "MEAN_MOTION": 1.00271885, "ECCENTRICITY": 0.0003147, "INCLINATION": 0.0369, "RA_OF_ASC_NODE": 55.6369, "ARG_OF_PERICENTER": 197.6268, "MEAN_ANOMALY": 126.3797, "EPHEMERIS_TYPE": 0, "CLASSIFICATION_TYPE": "U", "NORAD_CAT_ID": 39122, "ELEMENT_SET_NO": 999, "REV_AT_EPOCH": 4646, "BSTAR": 0, "MEAN_MOTION_DOT": 6e-08, "MEAN_MOTION_DDOT": 0}, "tle": {"line1": "1 39122U 13012A   25337.17822703  .00000006  00000+0  00000+0 0  9998", "line2": "2 39122   0.0369  55.6369 0003147 197.6268 126.3797  1.00271885 46462"}}, "geometry": {"type": "Point", "coordinates": [118.93966457010488, 0.03221372987561285]}}, {"type": "Feature", "properties": {"norad_id": 39163, "name": "EUTELSAT 7B", "group": "eutelsat", "lat": -0.08259794430518952, "lon": -117.2893639526215, "alt_km": 35780.241316289364, "timestamp": "2025-12-03T10:52:57.121419+00:00", "meta": {"OBJECT_NAME": "EUTELSAT 7B", "OBJECT_ID": "2013-022A", "EPOCH": "2025-12-03T01:48:14.168736", "MEAN_MOTION": 1.00269211, "ECCENTRICITY": 0.000416, "INCLINATION": 0.0674, "RA_OF_ASC_NODE": 359.1654, "ARG_OF_PERICENTER": 311.7884, "MEAN_ANOMALY": 155.2781, "EPHEMERIS_TYPE": 0, "CLASSIFICATION_TYPE": "U", "NORAD_CAT_ID": 39163, "ELEMENT_SET_NO": 999, "REV_AT_EPOCH": 4599, "BSTAR": 0, "MEAN_MOTION_DOT": 6.7e-07, "MEAN_MOTION_DDOT": 0}, "tle": {"line1": "1 39163U 13022A   25337.07516399  .00000067  00000+0  00000+0 0  9991", "line2": "2 39163   0.0674 359.1654 0004160 311.7884 155.2781  1.00269211 45995"}}, "geometry": {"type": "Point", "coordinates": [-117.2893639526215, -0.08259794430518952]}}, {"type": "Feature", "properties": {"norad_id": 39612, "name": "EXPRESS-AT1", "group": "eutelsat", "lat": -0.007973763725318776, "lon": -68.23863544741896, "alt_km": 35787.560528859634, "timestamp": "2025-12-03T10:52:57.121446+00:00", "meta": {"OBJECT_NAME": "EXPRESS-AT1", "OBJECT_ID": "2014-010A", "EPOCH": "2025-12-03T02:55:51.885120", "MEAN_MOTION": 1.00269797, "ECCENTRICITY": 3.08e-05, "INCLINATION": 0.016, "RA_OF_ASC_NODE": 295.0879, "ARG_OF_PERICENTER": 219.4551, "MEAN_ANOMALY": 17.6455, "EPHEMERIS_TYPE": 0, "CLASSIFICATION_TYPE": "U", "NORAD_CAT_ID": 39612, "ELEMENT_SET_NO": 999, "REV_AT_EPOCH": 4285, "BSTAR": 0, "MEAN_MOTION_DOT": 9.8e-07, "MEAN_MOTION_DDOT": 0}, "tle": {"line1": "1 39612U 14010A   25337.12212830  .00000098  00000+0  00000+0 0  9991", "line2": "2 39612   0.0160 295.0879 0000308 219.4551  17.6455  1.00269797 42856"}}, "geometry": {"type": "Point", "coordinates": [-68.23863544741896, -0.007973763725318776]}}, {"type": "Feature", "properties": {"norad_id": 39613, "name": "EXPRESS-AT2", "group": "eutelsat", "lat": 0.038396156999545, "lon": 15.636095027021227, "alt_km": 35785.954754104736, "timestamp": "2025-12-03T10:52:57.121461+00:00", "meta": {"OBJECT_NAME": "EXPRESS-AT2", "OBJECT_ID": "2014-010B", "EPOCH": "2025-12-03T04:08:42.090432", "MEAN_MOTION": 1.00271892, "ECCENTRICITY": 0.000125, "INCLINATION": 0.0176, "RA_OF_ASC_NODE": 309.1377, "ARG_OF_PERICENTER": 338.1326, "MEAN_ANOMALY": 347.0377, "EPHEMERIS_TYPE": 0, "CLASSIFICATION_TYPE": "U", "NORAD_CAT_ID": 39613, "ELEMENT_SET_NO": 999, "REV_AT_EPOCH": 4253, "BSTAR": 0, "MEAN_MOTION_DOT": -2.62e-06, "MEAN_MOTION_DDOT": 0}, "tle": {"line1": "1 39613U 14010B   25337.17270938 -.00000262  00000+0  00000+0 0  9994", "line2": "2 39613   0.0176 309.1377 0001250 338.1326 347.0377  1.00271892 42537"}}, "geometry": {"type": "Point", "coordinates": [15.636095027021227, 0.038396156999545]}}, {"type": "Feature", "properties": {"norad_id": 39773, "name": "EUTELSAT 3B", "group": "eutelsat", "lat": -0.07535452216766474, "lon": -121.13871631513105, "alt_km": 35766.52069974691, "timestamp": "2025-12-03T10:52:57.121474+00:00", "meta": {"OBJECT_NAME": "EUTELSAT 3B", "OBJECT_ID": "2014-030A", "EPOCH": "2025-12-03T01:47:06.775872", "MEAN_MOTION": 1.00270722, "ECCENTRICITY": 0.0004776, "INCLINATION": 0.0628, "RA_OF_ASC_NODE": 1.098, "ARG_OF_PERICENTER": 226.5291, "MEAN_ANOMALY": 234.4171, "EPHEMERIS_TYPE": 0, "CLASSIFICATION_TYPE": "U", "NORAD_CAT_ID": 39773, "ELEMENT_SET_NO": 999, "REV_AT_EPOCH": 4210, "BSTAR": 0, "MEAN_MOTION_DOT": 3.9e-07, "MEAN_MOTION_DDOT": 0}, "tle": {"line1": "1 39773U 14030A   25337.07438398  .00000039  00000+0  00000+0 0  9999", "line2": "2 39773   0.0628   1.0980 0004776 226.5291 234.4171  1.00270722 42106"}}, "geometry": {"type": "Point", "coordinates": [-121.13871631513105, -0.07535452216766474]}}, {"type": "Feature", "properties": {"norad_id": 40425, "name": "EUTELSAT 115 WEST B", "group": "eutelsat", "lat": -0.0033803158597337747, "lon": 120.8635125680043, "alt_km": 35785.16408251364, "timestamp": "2025-12-03T10:52:57.121498+00:00", "meta": {"OBJECT_NAME": "EUTELSAT 115 WEST B", "OBJECT_ID": "2015-010B", "EPOCH": "2025-12-02T23:30:40.501152", "MEAN_MOTION": 1.00271793, "ECCENTRICITY": 3.39e-05, "INCLINATION": 0.0139, "RA_OF_ASC_NODE": 143.9078, "ARG_OF_PERICENTER": 285.8537, "MEAN_ANOMALY": 240.0881, "EPHEMERIS_TYPE": 0, "CLASSIFICATION_TYPE": "U", "NORAD_CAT_ID": 40425, "ELEMENT_SET_NO": 999, "REV_AT_EPOCH": 3942, "BSTAR": 0, "MEAN_MOTION_DOT": -6e-08, "MEAN_MOTION_DDOT": 0}, "tle": {"line1": "1 40425U 15010B   25336.97963543 -.00000006  00000+0  00000+0 0  9992", "line2": "2 40425   0.0139 143.9078 0000339 285.8537 240.0881  1.00271793 39426"}}, "geometry": {"type": "Point", "coordinates": [120.8635125680043, -0.0033803158597337747]}}, {"type": "Feature", "properties": {"norad_id": 40875, "name": "EUTELSAT 8 WEST B", "group": "eutelsat", "lat": -0.08143623518978418, "lon": -132.25992339055105, "alt_km": 35770.48676905617, "timestamp": "2025-12-03T10:52:57.121521+00:00", "meta": {"OBJECT_NAME": "EUTELSAT 8 WEST B", "OBJECT_ID": "2015-039B", "EPOCH": "2025-12-03T01:43:59.574720", "MEAN_MOTION": 1.00271563, "ECCENTRICITY": 0.0004142, "INCLINATION": 0.0657, "RA_OF_ASC_NODE": 346.5018, "ARG_OF_PERICENTER": 268.1207, "MEAN_ANOMALY": 195.5495, "EPHEMERIS_TYPE": 0, "CLASSIFICATION_TYPE": "U", "NORAD_CAT_ID": 40875, "ELEMENT_SET_NO": 999, "REV_AT_EPOCH": 3769, "BSTAR": 0, "MEAN_MOTION_DOT": -4.6e-07, "MEAN_MOTION_DDOT": 0}, "tle": {"line1": "1 40875U 15039B   25337.07221730 -.00000046  00000+0  00000+0 0  9993", "line2": "2 40875   0.0657 346.5018 0004142 268.1207 195.5495  1.00271563 37696"}}, "geometry": {"type": "Point", "coordinates": [-132.25992339055105, -0.08143623518978418]}}, {"type": "Feature", "properties": {"norad_id": 41310, "name": "EUTELSAT 9B", "group": "eutelsat", "lat": -0.01721200817149675, "lon": -115.27765322042251, "alt_km": 35766.704647638835, "timestamp": "2025-12-03T10:52:57.121536+00:00", "meta": {"OBJECT_NAME": "EUTELSAT 9B", "OBJECT_ID": "2016-005A", "EPOCH": "2025-12-03T01:48:44.121024", "MEAN_MOTION": 1.00271188, "ECCENTRICITY": 0.0004894, "INCLINATION": 0.0647, "RA_OF_ASC_NODE": 74.9993, "ARG_OF_PERICENTER": 189.5296, "MEAN_ANOMALY": 203.8118, "EPHEMERIS_TYPE": 0, "CLASSIFICATION_TYPE": "U", "NORAD_CAT_ID": 41310, "ELEMENT_SET_NO": 999, "REV_AT_EPOCH": 3615, "BSTAR": 0, "MEAN_MOTION_DOT": 8.1e-07, "MEAN_MOTION_DDOT": 0}, "tle": {"line1": "1 41310U 16005A   25337.07551066  .00000081  00000+0  00000+0 0  9998", "line2": "2 41310   0.0647  74.9993 0004894 189.5296 203.8118  1.00271188 36150"}}, "geometry": {"type": "Point", "coordinates": [-115.27765322042251, -0.01721200817149675]}}, {"type": "Feature", "properties": {"norad_id": 41382, "name": "EUTELSAT 65 WEST A", "group": "eutelsat", "lat": -0.017430518251369275, "lon": 170.52344985641093, "alt_km": 35786.0584995035, "timestamp": "2025-12-03T10:52:57.121549+00:00", "meta": {"OBJECT_NAME": "EUTELSAT 65 WEST A", "OBJECT_ID": "2016-014A", "EPOCH": "2025-12-03T03:10:21.299808", "MEAN_MOTION": 1.00270775, "ECCENTRICITY": 0.0002771, "INCLINATION": 0.0502, "RA_OF_ASC_NODE": 343.8414, "ARG_OF_PERICENTER": 275.1096, "MEAN_ANOMALY": 155.6653, "EPHEMERIS_TYPE": 0, "CLASSIFICATION_TYPE": "U", "NORAD_CAT_ID": 41382, "ELEMENT_SET_NO": 999, "REV_AT_EPOCH": 3556, "BSTAR": 0, "MEAN_MOTION_DOT": -2.57e-06, "MEAN_MOTION_DDOT": 0}, "tle": {"line1": "1 41382U 16014A   25337.13219097 -.00000257  00000+0  00000+0 0  9995", "line2": "2 41382   0.0502 343.8414 0002771 275.1096 155.6653  1.00270775 35560"}}, "geometry": {"type": "Point", "coordinates": [170.52344985641093, -0.017430518251369275]}}, {"type": "Feature", "properties": {"norad_id": 41589, "name": "EUTELSAT 117 WEST B", "group": "eutelsat", "lat": -0.007556640927538261, "lon": 118.75049734821853, "alt_km": 35786.65222229121, "timestamp": "2025-12-03T10:52:57.121566+00:00", "meta": {"OBJECT_NAME": "EUTELSAT 117 WEST B", "OBJECT_ID": "2016-038B", "EPOCH": "2025-12-02T23:30:03.059712", "MEAN_MOTION": 1.00267861, "ECCENTRICITY": 1.93e-05, "INCLINATION": 0.0046, "RA_OF_ASC_NODE": 146.1916, "ARG_OF_PERICENTER": 23.0604, "MEAN_ANOMALY": 138.3396, "EPHEMERIS_TYPE": 0, "CLASSIFICATION_TYPE": "U", "NORAD_CAT_ID": 41589, "ELEMENT_SET_NO": 999, "REV_AT_EPOCH": 3469, "BSTAR": 0, "MEAN_MOTION_DOT": 8e-08, "MEAN_MOTION_DDOT": 0}, "tle": {"line1": "1 41589U 16038B   25336.97920208  .00000008  00000+0  00000+0 0  9997", "line2": "2 41589   0.0046 146.1916 0000193  23.0604 138.3396  1.00267861 34691"}}, "geometry": {"type": "Point", "coordinates": [118.75049734821853, -0.007556640927538261]}}]}